[{"OBJECT_NAME":"PAYLOAD B","OBJECT_ID":"2021-076B","EPOCH":"2026-03-09T23:07:58.430208","MEAN_MOTION":14.09434158,"ECCENTRICITY":0.00205271,"INCLINATION":86.4029,"RA_OF_ASC_NODE":122.8006,"ARG_OF_PERICENTER":151.2326,"MEAN_ANOMALY":208.9992,"EPHEMERIS_TYPE":0,"CLASSIFICATION_TYPE":"U","NORAD_CAT_ID":49113,"ELEMENT_SET_NO":999,"REV_AT_EPOCH":23345,"BSTAR":0.00012894921,"MEAN_MOTION_DOT":2.44e-6,"MEAN_MOTION_DDOT":0},{"OBJECT_NAME":"SL-16 DEB","OBJECT_ID":"1990-046D","EPOCH":"2026-03-09T16:18:28.374048","MEAN_MOTION":13.70972622,"ECCENTRICITY":0.02098876,"INCLINATION":70.9728,"RA_OF_ASC_NODE":63.7826,"ARG_OF_PERICENTER":70.458,"MEAN_ANOMALY":39.2853,"EPHEMERIS_TYPE":0,"CLASSIFICATION_TYPE":"U","NORAD_CAT_ID":20627,"ELEMENT_SET_NO":999,"REV_AT_EPOCH":79002,"BSTAR":0.00016380578,"MEAN_MOTION_DOT":1.29e-6,"MEAN_MOTION_DDOT":0}]
